LYNK TOWER 5            
1 59121U 24043Z   26068.92489786  .00009048  00000+0  31902-3 0  9994
2 59121  97.5458 204.7305 0010406 234.6422 125.3846 15.29454506111860
STARLINK-35219          
1 66443U 25259X   26068.93060066  .00025544  00000+0  93406-3 0  9992
2 66443  43.0001 273.3686 0001339 262.6783  97.3916 15.27597707 19418
